NORAD_CAT_ID,OBJECT_NAME,OBJECT_TYPE,EPOCH,MEAN_MOTION,ECCENTRICITY,INCLINATION,RA_OF_ASC_NODE,ARG_OF_PERICENTER,MEAN_ANOMALY,BSTAR,MEAN_MOTION_DOT,MEAN_MOTION_DDOT,TLE_LINE0,TLE_LINE1,TLE_LINE2,SEMIMAJOR_AXIS,PERIOD,APOGEE,PERIGEE,DECAYED
53844.0,STARLINK-4745,PAYLOAD,2022-11-03 22:00:00,15.73247109,0.0003016,53.2159,31.7589,15.2688,350.3371,-0.00069342,-0.00097048,0.0,0 STARLINK-4745,1 53844U 22114AC  22307.91667824 -.00097048  00000-0 -69342-3 0  9998,2 53844  53.2159  31.7589 0003016  15.2688 350.3371 15.73247109  1309,6727.761,91.53,351.655,347.597,0.0
53844.0,STARLINK-4745,PAYLOAD,2022-11-04 14:00:01,15.73193878,0.0003133,53.217,28.4622,17.0248,166.4156,-0.0007761,-0.00108161,0.0,0 STARLINK-4745,1 53844U 22114AC  22308.58334491 -.00108161  00000-0 -77610-3 0  9999,2 53844  53.2170  28.4622 0003133  17.0248 166.4156 15.73193878  7907,6727.913000000001,91.534,351.885,347.67,0.0
53844.0,STARLINK-4745,PAYLOAD,2022-11-04 22:00:01,15.73240293,0.0003056,53.2157,26.8099,10.1019,262.452,-0.0011175,-0.00154921,0.0,0 STARLINK-4745,1 53844U 22114AC  22308.91668981 -.00154921  00000-0 -11175-2 0  9998,2 53844  53.2157  26.8099 0003056  10.1019 262.4520 15.73240293  7957,6727.78,91.531,351.701,347.589,0.0
53844.0,STARLINK-4745,PAYLOAD,2022-11-05 14:00:01,15.7302527,0.000327,53.2161,23.5127,7.0595,83.2482,0.00067706,0.00094783,0.0,0 STARLINK-4745,1 53844U 22114AC  22309.58335648  .00094783  00000-0  67706-3 0  9992,2 53844  53.2161  23.5127 0003270   7.0595  83.2482 15.73025270  1305,6728.393,91.543,352.459,348.05800000000005,0.0
53844.0,STARLINK-4745,PAYLOAD,2022-11-05 22:00:01,15.73130452,0.000327,53.2164,21.8621,9.9414,169.1181,0.00054592,0.00076482,0.0,0 STARLINK-4745,1 53844U 22114AC  22309.91668981  .00076482  00000-0  54592-3 0  9993,2 53844  53.2164  21.8621 0003270   9.9414 169.1181 15.73130452  1308,6728.093000000003,91.537,352.159,347.7580000000001,0.0
53844.0,STARLINK-4745,PAYLOAD,2022-11-06 06:00:00,15.73193918,0.0003232,53.2166,20.2122,12.7789,255.0796,0.00053754,0.00075495,0.0,0 STARLINK-4745,1 53844U 22114AC  22310.25001157  .00075495  00000-0  53754-3 0  9990,2 53844  53.2166  20.2122 0003232  12.7789 255.0796 15.73193918  8168,6727.913000000001,91.534,351.952,347.603,0.0
53844.0,STARLINK-4745,PAYLOAD,2022-11-06 14:00:01,15.73251531,0.0003526999999999,53.2164,18.5648,10.8661,345.9352,-0.00014275,-0.0002066,0.0,0 STARLINK-4745,1 53844U 22114AC  22310.58334491 -.00020660  00000-0 -14275-3 0  9997,2 53844  53.2164  18.5648 0003527  10.8661 345.9352 15.73251531  1306,6727.748000000001,91.53,351.986,347.24,0.0
53844.0,STARLINK-4745,PAYLOAD,2022-11-07 00:00:00,15.73193397,0.000332,53.216,16.5008,6.8043,191.2349,0.00011297,0.0001526,0.0,0 STARLINK-4745,1 53844U 22114AC  22311.00001157  .00015260  00000-0  11297-3 0  9994,2 53844  53.2160  16.5008 0003320   6.8043 191.2349 15.73193397  8287,6727.9140000000025,91.534,352.01300000000015,347.545,0.0
53844.0,STARLINK-4745,PAYLOAD,2022-11-07 22:00:00,15.73263405,0.0003507,53.2163,11.9651,11.5726,341.0319,-0.00042673,-0.0006027,0.0,0 STARLINK-4745,1 53844U 22114AC  22311.91667824 -.00060270  00000-0 -42673-3 0  9998,2 53844  53.2163  11.9651 0003507  11.5726 341.0319 15.73263405  1307,6727.714,91.529,351.939,347.22,0.0
53844.0,STARLINK-4745,PAYLOAD,2022-11-08 00:00:02,15.73264334,0.0003506,53.2162,11.5522,12.3948,92.5507,-3.3166e-05,-5.291e-05,0.0,0 STARLINK-4745,1 53844U 22114AC  22312.00002315 -.00005291  00000-0 -33166-4 0  9997,2 53844  53.2162  11.5522 0003506  12.3948  92.5507 15.73264334  8444,6727.712,91.529,351.935,347.218,0.0
53844.0,STARLINK-4745,PAYLOAD,2022-11-08 14:00:01,15.73187787,0.0003979,53.2162,8.6674,18.412,152.2361,0.0010105,0.00143611,0.0,0 STARLINK-4745,1 53844U 22114AC  22312.58334491  .00143611  00000-0  10105-2 0  9996,2 53844  53.2162   8.6674 0003979  18.4120 152.2361 15.73187787  1308,6727.93,91.534,352.472,347.11800000000005,0.0
53844.0,STARLINK-4745,PAYLOAD,2022-11-08 22:00:00,15.73181501,0.0003652,53.2165,7.0161,12.103,247.4794,0.00024377,0.00033709,0.0,0 STARLINK-4745,1 53844U 22114AC  22312.91667824  .00033709  00000-0  24377-3 0  9995,2 53844  53.2165   7.0161 0003652  12.1030 247.4794 15.73181501  8586,6727.948,91.534,352.27,347.356,0.0
53844.0,STARLINK-4745,PAYLOAD,2022-11-09 14:00:01,15.73156463,0.0003819,53.2157,3.719,6.7629,70.6692,0.00057833,0.00081204,0.0,0 STARLINK-4745,1 53844U 22114AC  22313.58334491  .00081204  00000-0  57833-3 0  9996,2 53844  53.2157   3.7190 0003819   6.7629  70.6692 15.73156463  1305,6728.019,91.536,352.454,347.315,0.0
53844.0,STARLINK-4745,PAYLOAD,2022-11-09 22:00:01,15.73223333,0.000366,53.2164,2.0674,6.5839,159.8251,-2.0065e-05,-3.443e-05,0.0,0 STARLINK-4745,1 53844U 22114AC  22313.91668981 -.00003443  00000-0 -20065-4 0  9996,2 53844  53.2164   2.0674 0003660   6.5839 159.8251 15.73223333  8744,6727.829000000002,91.532,352.156,347.231,0.0
53844.0,STARLINK-4745,PAYLOAD,2022-11-10 14:00:01,15.73167279,0.0004031,53.2157,358.77,4.5735,339.6962,0.00017285,0.00023679,0.0,0 STARLINK-4745,1 53844U 22114AC  22314.58334491  .00023679  00000-0  17285-3 0  9996,2 53844  53.2157 358.7700 0004031   4.5735 339.6962 15.73167279  1301,6727.988,91.535,352.566,347.141,0.0
53844.0,STARLINK-4745,PAYLOAD,2022-11-10 22:00:00,15.73129863,0.0003779,53.2156,357.1185,6.2979,66.8902,0.00041157,0.00057379,0.0,0 STARLINK-4745,1 53844U 22114AC  22314.91667824  .00057379  00000-0  41157-3 0  9991,2 53844  53.2156 357.1185 0003779   6.2979  66.8902 15.73129863  8900,6728.095,91.537,352.50300000000016,347.418,0.0
53844.0,STARLINK-4745,PAYLOAD,2022-11-11 14:00:01,15.73131823,0.0004104,53.2154,353.8215,6.4374,244.5281,0.0008222999999999,0.00116089,0.0,0 STARLINK-4745,1 53844U 22114AC  22315.58334491  .00116089  00000-0  82230-3 0  9997,2 53844  53.2154 353.8215 0004104   6.4374 244.5281 15.73131823  1300,6728.09,91.537,352.716,347.1930000000001,0.0
53844.0,STARLINK-4745,PAYLOAD,2022-11-11 16:00:01,15.73171118,0.0004103,53.2152,353.4087,6.3219,356.9191,0.00045647,0.00063873,0.0,0 STARLINK-4745,1 53844U 22114AC  22315.66668981  .00063873  00000-0  45647-3 0  9993,2 53844  53.2152 353.4087 0004103   6.3219 356.9191 15.73171118  9012,6727.978,91.535,352.603,347.082,0.0
53844.0,STARLINK-4745,PAYLOAD,2022-11-11 22:00:00,15.73224424,0.0003865,53.2157,352.1698,5.8104,334.0564,-3.0807e-05,-4.952e-05,0.0,0 STARLINK-4745,1 53844U 22114AC  22315.91667824 -.00004952  00000-0 -30807-4 0  9994,2 53844  53.2157 352.1698 0003865   5.8104 334.0564 15.73224424  1306,6727.826,91.532,352.291,347.09,0.0
53844.0,STARLINK-4745,PAYLOAD,2022-11-12 14:00:01,15.73323837,0.000414,53.2156,348.8725,358.1009,159.7128,-0.0004606,-0.00065147,0.0,0 STARLINK-4745,1 53844U 22114AC  22316.58334491 -.00065147  00000-0 -46060-3 0  9999,2 53844  53.2156 348.8725 0004140 358.1009 159.7128 15.73323837  1309,6727.542,91.526,352.19199999999995,346.622,0.0
53844.0,STARLINK-4745,PAYLOAD,2022-11-12 22:00:00,15.73271635,0.000389,53.2156,347.2205,357.4787,249.3971,-0.00048417,-0.00068266,0.0,0 STARLINK-4745,1 53844U 22114AC  22316.91667824 -.00068266  00000-0 -48417-3 0  9998,2 53844  53.2156 347.2205 0003890 357.4787 249.3971 15.73271635  9219,6727.691,91.529,352.173,346.939,0.0
53844.0,STARLINK-4745,PAYLOAD,2022-11-13 14:00:01,15.73097201,0.0004167,53.2152,343.9234,3.2693,61.4882,0.00056351,0.00078889,0.0,0 STARLINK-4745,1 53844U 22114AC  22317.58334491  .00078889  00000-0  56351-3 0  9999,2 53844  53.2152 343.9234 0004167   3.2693  61.4882 15.73097201  9310,6728.188,91.539,352.857,347.25,0.0
53844.0,STARLINK-4745,PAYLOAD,2022-11-13 22:00:00,15.73141473,0.0003949,53.2156,342.2719,4.8018,148.8035,0.00057386,0.00080515,0.0,0 STARLINK-4745,1 53844U 22114AC  22317.91667824  .00080515  00000-0  57386-3 0  9993,2 53844  53.2156 342.2719 0003949   4.8018 148.8035 15.73141473  1301,6728.062,91.537,352.584,347.27,0.0
53844.0,STARLINK-4745,PAYLOAD,2022-11-14 14:00:01,15.73183258,0.0004354,53.2157,338.9744,9.5282,321.8816,0.00065685,0.00092555,0.0,0 STARLINK-4745,1 53844U 22114AC  22318.58334491  .00092555  00000-0  65685-3 0  9996,2 53844  53.2157 338.9744 0004354   9.5282 321.8816 15.73183258  9471,6727.943,91.534,352.737,346.879,0.0
53844.0,STARLINK-4745,PAYLOAD,2022-11-14 22:00:00,15.7322592,0.0004004,53.2156,337.3232,9.6486,50.6871,2.2734e-05,2.571e-05,0.0,0 STARLINK-4745,1 53844U 22114AC  22318.91667824  .00002571  00000-0  22734-4 0  9990,2 53844  53.2156 337.3232 0004004   9.6486  50.6871 15.73225920  1309,6727.821,91.532,352.38,346.992,0.0
53844.0,STARLINK-4745,PAYLOAD,2022-11-15 02:00:01,15.73234173,0.0003935,53.216,336.4976,9.5096,275.3051,-8.7865e-05,-0.00012961,0.0,0 STARLINK-4745,1 53844U 22114AC  22319.08334491 -.00012961  00000-0 -87865-4 0  9992,2 53844  53.2160 336.4976 0003935   9.5096 275.3051 15.73234173  9558,6727.7980000000025,91.531,352.31,347.015,0.0
53844.0,STARLINK-4745,PAYLOAD,2022-11-15 08:00:01,15.73198864,0.000425,53.2155,335.2635,8.3509,253.2259,-0.00016536,-0.00023778,0.0,0 STARLINK-4745,1 53844U 22114AC  22319.33335648 -.00023778  00000-0 -16536-3 0  9999,2 53844  53.2155 335.2635 0004250   8.3509 253.2259 15.73198864  9593,6727.898,91.533,352.62300000000016,346.904,0.0
53844.0,STARLINK-4745,PAYLOAD,2022-11-15 14:00:01,15.73180431,0.0004295,53.2152,334.0265,6.3309,231.8632,0.00039015,0.00054465,0.0,0 STARLINK-4745,1 53844U 22114AC  22319.58334491  .00054465  00000-0  39015-3 0  9993,2 53844  53.2152 334.0265 0004295   6.3309 231.8632 15.73180431  1300,6727.951,91.534,352.706,346.926,0.0
53844.0,STARLINK-4745,PAYLOAD,2022-11-15 22:00:00,15.73197063,0.0004035,53.2156,332.3749,6.2126,320.9194,4.5749e-05,5.802e-05,0.0,0 STARLINK-4745,1 53844U 22114AC  22319.91667824  .00005802  00000-0  45749-4 0  9992,2 53844  53.2156 332.3749 0004035   6.2126 320.9194 15.73197063  1302,6727.904,91.533,352.483,347.05400000000014,0.0
